start=new Date('2022-10-29T00:00:00.000Z').valueOf();
sats=[{"MEAN_MOTION_DDOT":"0.0000000000000","TLE_LINE2":"2 47991  53.0564  15.2615 0001638  61.2956 298.8197 15.06413751 90480","ECCENTRICITY":"0.00016380","OBJECT_ID":"2021-024Q","REF_FRAME":"TEME","RCS_SIZE":"LARGE","PERIAPSIS":"546.037","ELEMENT_SET_NO":"999","INCLINATION":"53.0564","BSTAR":"0.00003093900000","DECAY_DATE":null,"GP_ID":"216375142","OBJECT_TYPE":"PAYLOAD","MEAN_MOTION":"15.06413751","CLASSIFICATION_TYPE":"U","PERIOD":"95.591","EPHEMERIS_TYPE":"0","REV_AT_EPOCH":"9048","ARG_OF_PERICENTER":"61.2956","NORAD_CAT_ID":"47991","MEAN_ANOMALY":"298.8197","EPOCH":"2022-10-28T11:39:44.019360","COUNTRY_CODE":"US","SITE":"AFETR","TIME_SYSTEM":"UTC","LAUNCH_DATE":"2021-03-24","TLE_LINE1":"1 47991U 21024Q   22301.48592615  .00000179  00000-0  30939-4 0  9992","FILE":"3636776","MEAN_MOTION_DOT":"0.00000179","RA_OF_ASC_NODE":"15.2615","APOAPSIS":"548.306","CENTER_NAME":"EARTH","MEAN_ELEMENT_THEORY":"SGP4","OBJECT_NAME":"STARLINK-2279","SEMIMAJOR_AXIS":"6925.306"},{"PERIOD":"95.592","OBJECT_TYPE":"PAYLOAD","CLASSIFICATION_TYPE":"U","MEAN_MOTION":"15.06408871","EPOCH":"2022-10-28T16:56:13.523712","MEAN_ANOMALY":"307.5214","ARG_OF_PERICENTER":"52.5957","NORAD_CAT_ID":"47992","REV_AT_EPOCH":"9054","EPHEMERIS_TYPE":"0","OBJECT_ID":"2021-024R","REF_FRAME":"TEME","RCS_SIZE":"LARGE","MEAN_MOTION_DDOT":"0.0000000000000","TLE_LINE2":"2 47992  53.0563   9.3484 0001992  52.5957 307.5214 15.06408871 90547","ECCENTRICITY":"0.00019920","DECAY_DATE":null,"GP_ID":"216407393","ELEMENT_SET_NO":"999","PERIAPSIS":"545.807","BSTAR":"0.00012671000000","INCLINATION":"53.0563","MEAN_MOTION_DOT":"0.00001607","RA_OF_ASC_NODE":"9.3484","APOAPSIS":"548.566","LAUNCH_DATE":"2021-03-24","TLE_LINE1":"1 47992U 21024R   22301.70571208  .00001607  00000-0  12671-3 0  9992","FILE":"3637111","MEAN_ELEMENT_THEORY":"SGP4","OBJECT_NAME":"STARLINK-2229","SEMIMAJOR_AXIS":"6925.321","CENTER_NAME":"EARTH","COUNTRY_CODE":"US","SITE":"AFETR","TIME_SYSTEM":"UTC"},{"COUNTRY_CODE":"US","SITE":"AFETR","TIME_SYSTEM":"UTC","MEAN_MOTION_DOT":"0.00001846","RA_OF_ASC_NODE":"49.2258","APOAPSIS":"548.137","LAUNCH_DATE":"2021-03-24","TLE_LINE1":"1 47993U 21024S   22301.71306451  .00001846  00000-0  14279-3 0  9991","FILE":"3637111","MEAN_ELEMENT_THEORY":"SGP4","OBJECT_NAME":"STARLINK-2273","SEMIMAJOR_AXIS":"6925.334","CENTER_NAME":"EARTH","OBJECT_ID":"2021-024S","REF_FRAME":"TEME","RCS_SIZE":"LARGE","MEAN_MOTION_DDOT":"0.0000000000000","TLE_LINE2":"2 47993  53.0552  49.2258 0001354  94.0532 266.0612 15.06404592 90031","ECCENTRICITY":"0.00013540","GP_ID":"216408142","DECAY_DATE":null,"ELEMENT_SET_NO":"999","PERIAPSIS":"546.262","INCLINATION":"53.0552","BSTAR":"0.00014279000000","PERIOD":"95.592","OBJECT_TYPE":"PAYLOAD","CLASSIFICATION_TYPE":"U","MEAN_MOTION":"15.06404592","ARG_OF_PERICENTER":"94.0532","MEAN_ANOMALY":"266.0612","EPOCH":"2022-10-28T17:06:48.773664","NORAD_CAT_ID":"47993","EPHEMERIS_TYPE":"0","REV_AT_EPOCH":"9003"},{"LAUNCH_DATE":"2021-03-24","TLE_LINE1":"1 47994U 21024T   22301.71721624  .00002449  00000-0  18320-3 0  9996","FILE":"3637111","MEAN_MOTION_DOT":"0.00002449","RA_OF_ASC_NODE":"64.2056","APOAPSIS":"548.061","CENTER_NAME":"EARTH","OBJECT_NAME":"STARLINK-2290","MEAN_ELEMENT_THEORY":"SGP4","SEMIMAJOR_AXIS":"6925.306","COUNTRY_CODE":"US","SITE":"AFETR","TIME_SYSTEM":"UTC","OBJECT_TYPE":"PAYLOAD","MEAN_MOTION":"15.06413770","CLASSIFICATION_TYPE":"U","PERIOD":"95.591","REV_AT_EPOCH":"8976","EPHEMERIS_TYPE":"0","ARG_OF_PERICENTER":"93.7438","EPOCH":"2022-10-28T17:12:47.483136","MEAN_ANOMALY":"266.3698","NORAD_CAT_ID":"47994","MEAN_MOTION_DDOT":"0.0000000000000","TLE_LINE2":"2 47994  53.0549  64.2056 0001285  93.7438 266.3698 15.06413770 89768","ECCENTRICITY":"0.00012850","OBJECT_ID":"2021-024T","REF_FRAME":"TEME","RCS_SIZE":"LARGE","ELEMENT_SET_NO":"999","PERIAPSIS":"546.281","INCLINATION":"53.0549","BSTAR":"0.00018320000000","DECAY_DATE":null,"GP_ID":"216406392"},{"DECAY_DATE":null,"GP_ID":"216375643","INCLINATION":"53.0554","BSTAR":"0.00006618100000","ELEMENT_SET_NO":"999","PERIAPSIS":"546.212","RCS_SIZE":"LARGE","REF_FRAME":"TEME","OBJECT_ID":"2021-024U","ECCENTRICITY":"0.00014500","MEAN_MOTION_DDOT":"0.0000000000000","TLE_LINE2":"2 47995  53.0554  30.3662 0001450  73.4944 286.6204 15.06399213 90230","ARG_OF_PERICENTER":"73.4944","EPOCH":"2022-10-28T12:38:50.056800","NORAD_CAT_ID":"47995","MEAN_ANOMALY":"286.6204","REV_AT_EPOCH":"9023","EPHEMERIS_TYPE":"0","PERIOD":"95.592","CLASSIFICATION_TYPE":"U","MEAN_MOTION":"15.06399213","OBJECT_TYPE":"PAYLOAD","TIME_SYSTEM":"UTC","SITE":"AFETR","COUNTRY_CODE":"US","SEMIMAJOR_AXIS":"6925.351","OBJECT_NAME":"STARLINK-2309","MEAN_ELEMENT_THEORY":"SGP4","CENTER_NAME":"EARTH","APOAPSIS":"548.220","RA_OF_ASC_NODE":"30.3662","MEAN_MOTION_DOT":"0.00000704","FILE":"3636776","TLE_LINE1":"1 47995U 21024U   22301.52696825  .00000704  00000-0  66181-4 0  9991","LAUNCH_DATE":"2021-03-24"},{"ARG_OF_PERICENTER":"43.0117","EPOCH":"2022-10-28T18:25:49.790496","MEAN_ANOMALY":"317.1059","NORAD_CAT_ID":"47996","REV_AT_EPOCH":"9137","EPHEMERIS_TYPE":"0","PERIOD":"95.592","CLASSIFICATION_TYPE":"U","MEAN_MOTION":"15.06403925","OBJECT_TYPE":"PAYLOAD","DECAY_DATE":null,"GP_ID":"216407893","BSTAR":"0.00015000000000","INCLINATION":"53.0552","ELEMENT_SET_NO":"999","PERIAPSIS":"545.539","RCS_SIZE":"LARGE","REF_FRAME":"TEME","OBJECT_ID":"2021-024V","ECCENTRICITY":"0.00024010","TLE_LINE2":"2 47996  53.0552 314.2764 0002401  43.0117 317.1059 15.06403925 91378","MEAN_MOTION_DDOT":"0.0000000000000","SEMIMAJOR_AXIS":"6925.337","OBJECT_NAME":"STARLINK-2260","MEAN_ELEMENT_THEORY":"SGP4","CENTER_NAME":"EARTH","APOAPSIS":"548.864","RA_OF_ASC_NODE":"314.2764","MEAN_MOTION_DOT":"0.00001953","FILE":"3637111","TLE_LINE1":"1 47996U 21024V   22301.76793739  .00001953  00000-0  15000-3 0  9990","LAUNCH_DATE":"2021-03-24","TIME_SYSTEM":"UTC","SITE":"AFETR","COUNTRY_CODE":"US"},{"COUNTRY_CODE":"US","SITE":"AFETR","TIME_SYSTEM":"UTC","MEAN_MOTION_DOT":"0.00001143","RA_OF_ASC_NODE":"63.9760","APOAPSIS":"548.031","LAUNCH_DATE":"2021-03-24","TLE_LINE1":"1 47997U 21024W   22301.76513931  .00001143  00000-0  95571-4 0  9998","FILE":"3637111","OBJECT_NAME":"STARLINK-2266","MEAN_ELEMENT_THEORY":"SGP4","SEMIMAJOR_AXIS":"6925.319","CENTER_NAME":"EARTH","OBJECT_ID":"2021-024W","REF_FRAME":"TEME","RCS_SIZE":"LARGE","MEAN_MOTION_DDOT":"0.0000000000000","TLE_LINE2":"2 47997  53.0554  63.9760 0001222  96.1604 263.9524 15.06409570 89830","ECCENTRICITY":"0.00012220","GP_ID":"216407643","DECAY_DATE":null,"PERIAPSIS":"546.338","ELEMENT_SET_NO":"999","BSTAR":"0.00009557100000","INCLINATION":"53.0554","PERIOD":"95.592","OBJECT_TYPE":"PAYLOAD","MEAN_MOTION":"15.06409570","CLASSIFICATION_TYPE":"U","ARG_OF_PERICENTER":"96.1604","EPOCH":"2022-10-28T18:21:48.036384","NORAD_CAT_ID":"47997","MEAN_ANOMALY":"263.9524","REV_AT_EPOCH":"8983","EPHEMERIS_TYPE":"0"},{"OBJECT_ID":"2021-024X","REF_FRAME":"TEME","RCS_SIZE":"LARGE","MEAN_MOTION_DDOT":"0.0000000000000","TLE_LINE2":"2 47998  53.0561  40.3892 0001385  76.6990 283.4153 15.06412395 90088","ECCENTRICITY":"0.00013850","GP_ID":"216375393","DECAY_DATE":null,"ELEMENT_SET_NO":"999","PERIAPSIS":"546.216","BSTAR":"0.00033751000000","INCLINATION":"53.0561","PERIOD":"95.591","OBJECT_TYPE":"PAYLOAD","MEAN_MOTION":"15.06412395","CLASSIFICATION_TYPE":"U","ARG_OF_PERICENTER":"76.6990","MEAN_ANOMALY":"283.4153","EPOCH":"2022-10-28T12:10:57.545472","NORAD_CAT_ID":"47998","EPHEMERIS_TYPE":"0","REV_AT_EPOCH":"9008","COUNTRY_CODE":"US","SITE":"AFETR","TIME_SYSTEM":"UTC","MEAN_MOTION_DOT":"0.00004751","RA_OF_ASC_NODE":"40.3892","APOAPSIS":"548.135","LAUNCH_DATE":"2021-03-24","TLE_LINE1":"1 47998U 21024X   22301.50761048  .00004751  00000-0  33751-3 0  9994","FILE":"3636776","MEAN_ELEMENT_THEORY":"SGP4","OBJECT_NAME":"STARLINK-2296","SEMIMAJOR_AXIS":"6925.311","CENTER_NAME":"EARTH"},{"COUNTRY_CODE":"US","TIME_SYSTEM":"UTC","SITE":"AFETR","APOAPSIS":"548.165","RA_OF_ASC_NODE":"9.7597","MEAN_MOTION_DOT":"0.00002818","FILE":"3637111","TLE_LINE1":"1 47999U 21024Y   22301.59049036  .00002818  00000-0  20795-3 0  9996","LAUNCH_DATE":"2021-03-24","SEMIMAJOR_AXIS":"6925.313","OBJECT_NAME":"STARLINK-2218","MEAN_ELEMENT_THEORY":"SGP4","CENTER_NAME":"EARTH","RCS_SIZE":"LARGE","REF_FRAME":"TEME","OBJECT_ID":"2021-024Y","ECCENTRICITY":"0.00014260","TLE_LINE2":"2 47999  53.0550   9.7597 0001426  71.8128 288.3016 15.06411646 90512","MEAN_MOTION_DDOT":"0.0000000000000","GP_ID":"216407142","DECAY_DATE":null,"INCLINATION":"53.0550","BSTAR":"0.00020795000000","ELEMENT_SET_NO":"999","PERIAPSIS":"546.190","PERIOD":"95.591","MEAN_MOTION":"15.06411646","CLASSIFICATION_TYPE":"U","OBJECT_TYPE":"PAYLOAD","ARG_OF_PERICENTER":"71.8128","MEAN_ANOMALY":"288.3016","EPOCH":"2022-10-28T14:10:18.367104","NORAD_CAT_ID":"47999","REV_AT_EPOCH":"9051","EPHEMERIS_TYPE":"0"},{"GP_ID":"216374392","DECAY_DATE":null,"INCLINATION":"53.0549","BSTAR":"0.00009934200000","ELEMENT_SET_NO":"999","PERIAPSIS":"545.825","REF_FRAME":"TEME","OBJECT_ID":"2021-024Z","RCS_SIZE":"LARGE","MEAN_MOTION_DDOT":"0.0000000000000","TLE_LINE2":"2 48000  53.0549 355.8953 0002004  45.7745 314.3408 15.06400302 90706","ECCENTRICITY":"0.00020040","MEAN_ANOMALY":"314.3408","EPOCH":"2022-10-28T09:19:06.680064","NORAD_CAT_ID":"48000","ARG_OF_PERICENTER":"45.7745","REV_AT_EPOCH":"9070","EPHEMERIS_TYPE":"0","PERIOD":"95.592","OBJECT_TYPE":"PAYLOAD","MEAN_MOTION":"15.06400302","CLASSIFICATION_TYPE":"U","TIME_SYSTEM":"UTC","SITE":"AFETR","COUNTRY_CODE":"US","SEMIMAJOR_AXIS":"6925.348","MEAN_ELEMENT_THEORY":"SGP4","OBJECT_NAME":"STARLINK-2270","CENTER_NAME":"EARTH","RA_OF_ASC_NODE":"355.8953","MEAN_MOTION_DOT":"0.00001198","APOAPSIS":"548.600","LAUNCH_DATE":"2021-03-24","FILE":"3636776","TLE_LINE1":"1 48000U 21024Z   22301.38827176  .00001198  00000-0  99342-4 0  9991"}];
